{"type": "FeatureCollection", "features": [ {"type": "Feature", "properties": {"norad_id": 59598, "name": "GSAT0225 (GALILEO 29)", "group": "gnss", "lat": -29.766156955467846, "lon": -50.166164404209994, "alt_km": 23221.321583223973, "timestamp": "2025-12-14T09:36:23.280923+00:00", "meta": {"OBJECT_NAME": "GSAT0225 (GALILEO 29)", "OBJECT_ID": "2024-079A", "EPOCH": "2025-12-10T12:47:07.958400", "MEAN_MOTION": 1.70474727, "ECCENTRICITY": 0.00020453, "INCLINATION": 55.0006, "RA_OF_ASC_NODE": 106.3566, "ARG_OF_PERICENTER": 176.2356, "MEAN_ANOMALY": 187.363, "EPHEMERIS_TYPE": 0, "CLASSIFICATION_TYPE": "U", "NORAD_CAT_ID": 59598, "ELEMENT_SET_NO": 999, "REV_AT_EPOCH": 1010, "BSTAR": 0, "MEAN_MOTION_DOT": 1e-07, "MEAN_MOTION_DDOT": 0}, "tle": {"line1": "1 59598U 24079A   25344.53273100  .00000010  00000+0  00000+0 0  9996", "line2": "2 59598  55.0006 106.3566 0002045 176.2356 187.3630  1.70474727 10101"}}, "geometry": {"type": "Point", "coordinates": [-50.166164404209994, -29.766156955467846]}}, {"type": "Feature", "properties": {"norad_id": 59600, "name": "GSAT0227 (GALILEO 30)", "group": "gnss", "lat": 52.3986837222886, "lon": -139.14054716922863, "alt_km": 23206.450465861704, "timestamp": "2025-12-14T09:36:23.280934+00:00", "meta": {"OBJECT_NAME": "GSAT0227 (GALILEO 30)", "OBJECT_ID": "2024-079C", "EPOCH": "2025-12-08T22:48:42.234912", "MEAN_MOTION": 1.70474719, "ECCENTRICITY": 0.0003262, "INCLINATION": 54.9946, "RA_OF_ASC_NODE": 106.4003, "ARG_OF_PERICENTER": 114.182, "MEAN_ANOMALY": 245.816, "EPHEMERIS_TYPE": 0, "CLASSIFICATION_TYPE": "U", "NORAD_CAT_ID": 59600, "ELEMENT_SET_NO": 999, "REV_AT_EPOCH": 1012, "BSTAR": 0, "MEAN_MOTION_DOT": 9e-08, "MEAN_MOTION_DDOT": 0}, "tle": {"line1": "1 59600U 24079C   25342.95048883  .00000009  00000+0  00000+0 0  9990", "line2": "2 59600  54.9946 106.4003 0003262 114.1820 245.8160  1.70474719 10123"}}, "geometry": {"type": "Point", "coordinates": [-139.14054716922863, 52.3986837222886]}}, {"type": "Feature", "properties": {"norad_id": 61182, "name": "GSAT0232 (GALILEO 32)", "group": "gnss", "lat": -45.855354017632926, "lon": -179.23227788540675, "alt_km": 23227.24005875265, "timestamp": "2025-12-14T09:36:23.280947+00:00", "meta": {"OBJECT_NAME": "GSAT0232 (GALILEO 32)", "OBJECT_ID": "2024-167A", "EPOCH": "2025-12-12T10:51:18.741600", "MEAN_MOTION": 1.70473504, "ECCENTRICITY": 0.00019431, "INCLINATION": 55.2408, "RA_OF_ASC_NODE": 226.4386, "ARG_OF_PERICENTER": 211.6313, "MEAN_ANOMALY": 332.0573, "EPHEMERIS_TYPE": 0, "CLASSIFICATION_TYPE": "U", "NORAD_CAT_ID": 61182, "ELEMENT_SET_NO": 999, "REV_AT_EPOCH": 769, "BSTAR": 0, "MEAN_MOTION_DOT": 1.6e-07, "MEAN_MOTION_DDOT": 0}, "tle": {"line1": "1 61182U 24167A   25346.45230025  .00000016  00000+0  00000+0 0  9994", "line2": "2 61182  55.2408 226.4386 0001943 211.6313 332.0573  1.70473504  7695"}}, "geometry": {"type": "Point", "coordinates": [-179.23227788540675, -45.855354017632926]}}, {"type": "Feature", "properties": {"norad_id": 61183, "name": "GSAT0226 (GALILEO 31)", "group": "gnss", "lat": 40.19910559668057, "lon": -97.70929597776578, "alt_km": 23216.16640351029, "timestamp": "2025-12-14T09:36:23.280958+00:00", "meta": {"OBJECT_NAME": "GSAT0226 (GALILEO 31)", "OBJECT_ID": "2024-167B", "EPOCH": "2025-12-12T20:26:08.685024", "MEAN_MOTION": 1.70473602, "ECCENTRICITY": 8.42e-05, "INCLINATION": 55.2391, "RA_OF_ASC_NODE": 226.433, "ARG_OF_PERICENTER": 113.0334, "MEAN_ANOMALY": 68.3038, "EPHEMERIS_TYPE": 0, "CLASSIFICATION_TYPE": "U", "NORAD_CAT_ID": 61183, "ELEMENT_SET_NO": 999, "REV_AT_EPOCH": 767, "BSTAR": 0, "MEAN_MOTION_DOT": 1.9e-07, "MEAN_MOTION_DDOT": 0}, "tle": {"line1": "1 61183U 24167B   25346.85148941  .00000019  00000+0  00000+0 0  9997", "line2": "2 61183  55.2391 226.4330 0000842 113.0334  68.3038  1.70473602  7673"}}, "geometry": {"type": "Point", "coordinates": [-97.70929597776578, 40.19910559668057]}}, {"type": "Feature", "properties": {"norad_id": 61186, "name": "BEIDOU-3 M25 (C47)", "group": "gnss", "lat": 39.88394660646622, "lon": 92.27284707058854, "alt_km": 21538.21083110175, "timestamp": "2025-12-14T09:36:23.280969+00:00", "meta": {"OBJECT_NAME": "BEIDOU-3 M25 (C47)", "OBJECT_ID": "2024-168B", "EPOCH": "2025-12-13T09:51:38.613312", "MEAN_MOTION": 1.86230198, "ECCENTRICITY": 0.00054273, "INCLINATION": 54.6413, "RA_OF_ASC_NODE": 308.6962, "ARG_OF_PERICENTER": 297.8799, "MEAN_ANOMALY": 246.8955, "EPHEMERIS_TYPE": 0, "CLASSIFICATION_TYPE": "U", "NORAD_CAT_ID": 61186, "ELEMENT_SET_NO": 999, "REV_AT_EPOCH": 832, "BSTAR": 0, "MEAN_MOTION_DOT": -9.7e-07, "MEAN_MOTION_DDOT": 0}, "tle": {"line1": "1 61186U 24168B   25347.41086358 -.00000097  00000+0  00000+0 0  9994", "line2": "2 61186  54.6413 308.6962 0005427 297.8799 246.8955  1.86230198  8320"}}, "geometry": {"type": "Point", "coordinates": [92.27284707058854, 39.88394660646622]}}, {"type": "Feature", "properties": {"norad_id": 61187, "name": "BEIDOU-3 M27 (C49)", "group": "gnss", "lat": -54.050680327292, "lon": -153.22246924174215, "alt_km": 21532.077694788295, "timestamp": "2025-12-14T09:36:23.280981+00:00", "meta": {"OBJECT_NAME": "BEIDOU-3 M27 (C49)", "OBJECT_ID": "2024-168C", "EPOCH": "2025-12-13T04:47:06.571968", "MEAN_MOTION": 1.86230336, "ECCENTRICITY": 0.00023989, "INCLINATION": 54.6369, "RA_OF_ASC_NODE": 308.6872, "ARG_OF_PERICENTER": 337.1666, "MEAN_ANOMALY": 200.7639, "EPHEMERIS_TYPE": 0, "CLASSIFICATION_TYPE": "U", "NORAD_CAT_ID": 61187, "ELEMENT_SET_NO": 999, "REV_AT_EPOCH": 579, "BSTAR": 0, "MEAN_MOTION_DOT": -9.6e-07, "MEAN_MOTION_DDOT": 0}, "tle": {"line1": "1 61187U 24168C   25347.19938162 -.00000096  00000+0  00000+0 0  9998", "line2": "2 61187  54.6369 308.6872 0002398 337.1666 200.7639  1.86230336  5796"}}, "geometry": {"type": "Point", "coordinates": [-153.22246924174215, -54.050680327292]}}, {"type": "Feature", "properties": {"norad_id": 62339, "name": "GPS BIII-7  (PRN 01)", "group": "gnss", "lat": 15.993555012299996, "lon": -6.713217079475609, "alt_km": 20153.206751172973, "timestamp": "2025-12-14T09:36:23.280992+00:00", "meta": {"OBJECT_NAME": "GPS BIII-7  (PRN 01)", "OBJECT_ID": "2024-242A", "EPOCH": "2025-12-13T08:55:39.244800", "MEAN_MOTION": 2.00567973, "ECCENTRICITY": 0.00122972, "INCLINATION": 54.9234, "RA_OF_ASC_NODE": 341.714, "ARG_OF_PERICENTER": 344.9239, "MEAN_ANOMALY": 12.1981, "EPHEMERIS_TYPE": 0, "CLASSIFICATION_TYPE": "U", "NORAD_CAT_ID": 62339, "ELEMENT_SET_NO": 999, "REV_AT_EPOCH": 752, "BSTAR": 0, "MEAN_MOTION_DOT": -9.1e-07, "MEAN_MOTION_DDOT": 0}, "tle": {"line1": "1 62339U 24242A   25347.37198200 -.00000091  00000+0  00000+0 0  9997", "line2": "2 62339  54.9234 341.7140 0012297 344.9239  12.1981  2.00567973  7522"}}, "geometry": {"type": "Point", "coordinates": [-6.713217079475609, 15.993555012299996]}}, {"type": "Feature", "properties": {"norad_id": 62850, "name": "NVS-02 (IRNSS-1K)", "group": "gnss", "lat": 20.97205192003742, "lon": 58.16492483806121, "alt_km": 2377.966133075616, "timestamp": "2025-12-14T09:36:23.281005+00:00", "meta": {"OBJECT_NAME": "NVS-02 (IRNSS-1K)", "OBJECT_ID": "2025-020A", "EPOCH": "2025-12-13T11:12:45.640224", "MEAN_MOTION": 2.17595217, "ECCENTRICITY": 0.73478075, "INCLINATION": 20.9809, "RA_OF_ASC_NODE": 327.3963, "ARG_OF_PERICENTER": 26.7061, "MEAN_ANOMALY": 357.1841, "EPHEMERIS_TYPE": 0, "CLASSIFICATION_TYPE": "U", "NORAD_CAT_ID": 62850, "ELEMENT_SET_NO": 999, "REV_AT_EPOCH": 693, "BSTAR": 0.00038259656, "MEAN_MOTION_DOT": 4.87e-06, "MEAN_MOTION_DDOT": 0}, "tle": {"line1": "1 62850U 25020A   25347.46719491  .00000487  00000+0  38260-3 0  9992", "line2": "2 62850  20.9809 327.3963 7347807  26.7061 357.1841  2.17595217  6938"}}, "geometry": {"type": "Point", "coordinates": [58.16492483806121, 20.97205192003742]}}, {"type": "Feature", "properties": {"norad_id": 62876, "name": "QZS-6 (QZSS/PRN 200)", "group": "gnss", "lat": -0.03557833621208596, "lon": -42.07147771756182, "alt_km": 35780.616594050254, "timestamp": "2025-12-14T09:36:23.281017+00:00", "meta": {"OBJECT_NAME": "QZS-6 (QZSS/PRN 200)", "OBJECT_ID": "2025-023A", "EPOCH": "2025-12-13T15:35:30.950592", "MEAN_MOTION": 1.00274384, "ECCENTRICITY": 0.00016444, "INCLINATION": 0.034, "RA_OF_ASC_NODE": 58.1829, "ARG_OF_PERICENTER": 213.5291, "MEAN_ANOMALY": 135.2474, "EPHEMERIS_TYPE": 0, "CLASSIFICATION_TYPE": "U", "NORAD_CAT_ID": 62876, "ELEMENT_SET_NO": 999, "REV_AT_EPOCH": 309, "BSTAR": 0, "MEAN_MOTION_DOT": -2.18e-06, "MEAN_MOTION_DDOT": 0}, "tle": {"line1": "1 62876U 25023A   25347.64966378 -.00000218  00000+0  00000+0 0  9991", "line2": "2 62876   0.0340  58.1829 0001644 213.5291 135.2474  1.00274384  3096"}}, "geometry": {"type": "Point", "coordinates": [-42.07147771756182, -0.03557833621208596]}}, {"type": "Feature", "properties": {"norad_id": 63130, "name": "COSMOS 2584 (704K)", "group": "gnss", "lat": 56.499795517408074, "lon": -145.70656359084978, "alt_km": 19128.347017468226, "timestamp": "2025-12-14T09:36:23.281029+00:00", "meta": {"OBJECT_NAME": "COSMOS 2584 (704K)", "OBJECT_ID": "2025-042A", "EPOCH": "2025-12-12T20:16:48.196992", "MEAN_MOTION": 2.13103011, "ECCENTRICITY": 0.00076618, "INCLINATION": 64.9761, "RA_OF_ASC_NODE": 79.1423, "ARG_OF_PERICENTER": 217.4089, "MEAN_ANOMALY": 142.5525, "EPHEMERIS_TYPE": 0, "CLASSIFICATION_TYPE": "U", "NORAD_CAT_ID": 63130, "ELEMENT_SET_NO": 999, "REV_AT_EPOCH": 607, "BSTAR": 0, "MEAN_MOTION_DOT": -4.4e-07, "MEAN_MOTION_DDOT": 0}, "tle": {"line1": "1 63130U 25042A   25346.84500228 -.00000044  00000+0  00000+0 0  9992", "line2": "2 63130  64.9761  79.1423 0007661 217.4089 142.5525  2.13103011  6074"}}, "geometry": {"type": "Point", "coordinates": [-145.70656359084978, 56.499795517408074]}}]}